@id,address,address_en,coordinates_lat,coordinates_lon,name,name_en,website,workingHours,municipality
309879651,Св. Кирил и Методиj,St. Kiril i Metodij,41.9919017,21.4266878,Рамстор,Ramstore,http://www.ramstoremall.com.mk/,Mo-Su 08:00-22:00,1
364985725,Воин Драшковиќ,Voin Drashkovikj,42.0068279,21.3649348,Sp planet,Sp Planet,http://www.spplanet.com.mk/,Mo-Sa 07:00-22:00,2
375645834,Булевар Ѓорче Петров,Boulevard Gjorce Petrov,42.0070862,21.3634616,Тинекс,Tinex,http://www.tinex.com.mk/,Mo-Sa 08:00-22:00,2
416417027,Кеј на Вардар,Kej na Vardar,41.9897519,21.4548174,Кипер маркет,Kipper Market,/,/,3
446388134,Булевар Јане Сандански,Boulevard Jane Sandanski,41.9845218,21.4688286,Веро,Vero,http://www.vero.com.mk/,Mo-Sa 08:00-22:00,3
459669395,Кеј 13 Ноември,Kej 13 Noemvri,41.9947502,21.4345769,Веро 7,Vero 7,http://www.vero.com.mk/,Mo-Sa 07:30-22:00; Su 10:00-20:00,1
470599988,Мирче Ацев,Mirche Acev,41.9925332,21.4370214,Тинекс,Tinex,http://www.tinex.com.mk/,Mo-Sa 08:00-21:30,1
470616644,Питу Гули,Pitu Guli,41.9903083,21.411176,Тинекс,Tinex,http://www.tinex.com.mk/,Mo-Sa 08:00-22:00,3
569629582,Булевар Видое Смилевски Бато,Boulevard Vidoe Smilevski Bato,41.9801204,21.4752382,Рептил маркет,Reptil Market,http://www.reptilmarketi.mk/,Mo-Sa 07:00-21:00,3
577538728,Лазар Трповски,Lazar Trpovski,42.0197651,21.4350123,Prince,Prince,/,/,4
933483954,Булевар Јане Сандански 49,Boulevard Jane Sandanski,41.9866616,21.4675141,Жито маркет,Zito Market,/,Mo-Sa 07:30-21:30; Su 08:00-15:00,3
1263404485,ул. Маџари,ul. Madzari,42.0046326,21.5033827,Кам маркет,Kam Market,https://kam.com.mk/,Mo-Sa 07:30-21:30,5
1263404490,ул. Маџари,ul. Madzari,42.004501,21.5038977,Пазарче ченто,Pazarce Cento,/,Mo-Su 06:00-16:00,5
1381585160,Тоне Томшиќ,Tone Tomshikj,41.9813069,21.4383256,Рептил маркет,Reptil Market,http://www.reptilmarketi.mk/,Mo-Sa 07:00-21:00,6
1609094328,Булевар Видое Смилевски Бато,Boulevard Vidoe Smilevski Bato,41.9798044,21.4752182,Кам маркет,Kam Market,http://www.kam.com.mk/,Mo-Sa 08:00-21:30,3
1609098405,Булевар Видое Смилевски Бато,Boulevard Vidoe Smilevski Bato,41.9794894,21.4764231,Рамстор,Ramstore,http://ramstoremall.com.mk/,Mo-Sa 08:00-22:00,3
1615844916,Булевар Партизански Одреди,Boulevard Partizanski Odredi,42.0034268,21.3989021,Космо тинекс,Cosmo tinex,/,/,7
1734513499,Кузман Шапкарев,Kuzman Shapkarev,42.0076504,21.3396463,Жито маркет,Zito Market,http://zito.com.mk/,Mo-Sa 07:30-21:30; Su 07:30-13:30,2
1793209848,Востаничка,Vostanicka,41.9810056,21.4323628,Кам маркет,Kam Market,http://kam.com.mk/,Mo-Fr 08:00-22:00,6
1851607184,50-та Дивизија,50-ta Divizija,41.988882,21.4282537,Кам маркет,Kam Market,http://kam.com.mk/,Mo-Sa 07:30-21:30,1
1860365652,Јани Лурковски 3,Jani Lurkovski,42.0026311,21.4623331,Кам маркет,Kam Market,http://kam.com.mk/,Mo-Sa 08:00-22:00,5
1860365681,Булевар Кочо Рацин,Boulevard Kocho Racin,41.9930392,21.4414652,Веро 9,Vero,http://www.vero.com.mk/,Mo-Sa 08:00-22:00,1
2000505737,Манапо,Manapo,42.0048803,21.3922837,Рамстор,Ramstore,http://ramstore.com.mk/,Mo-Su 10:00-22:00,7
2174953768,Перо Наков,Pero Nakov,41.9973587,21.483821,Електрометал,Elektrometal,http://www.elektroelement.com.mk,Mo-Sa 08:00-20:00,5
2297036326,Војвода Васил Чакаларов,Vojvoda Vasil Chakalarov,42.0022775,21.3762625,Тинекс,Tinex,/,Mo-Sa 08:00-21:30,2
2395103183,Моцартова,Mocartova,42.0197432,21.356581,Маркет Кики,Market Kiki,/,Mo-Sa 06:00-22:00,2
2882345348,Борис Трајковски,Boris Trajkovski,41.974857,21.4533122,Тинекс,Tinex,http://www.tinex.com.mk/,Mo-Sa 08:00-22:00,6
2882345397,Февруарски Поход,Fevruarski Pohod,41.9844445,21.4838698,Рамстор,Ramstore,http://www.ramstore.com.mk/,Mo-Sa 08:00-22:00,3
2883879847,Булевар Јане Сандански,Boulevard Jane Sandanski,41.9839638,21.4649937,Жито маркет,Zito Market,http://zito.com.mk/,Mo-Sa 07:30-21:00,3
2884502076,Гоген,Gogen,41.9720378,21.4722684,Зур маркет,Zur Market,http://zurmarket.mk/,Mo-Sa 07:30-22:00,3
3428974493,Булевар Кочо Рацин,Boulevard Kocho Racin,41.993327,21.441556,Dm,DM,https://www.dm.mk/,/,1
3506695094,Козле,Kozle,41.9938931,21.4010606,Кам маркет козле,Kam Market,http://www.kam.com.mk,Mo-Sa 08:00-22:00,1
3614132047,Булевар Партизански Одреди,Boulevard Partizanski Odredi,42.0050579,21.3831193,Фреш маркет бојди,Fresh Market,/,/,7
3635145515,Лондонска,Londonska,42.0017143,21.3914204,Кам маркет,Kam Market,http://www.kam.com.mk,Mo-Sa 07:30-21:30; Su 07:30-16:00,7
3663767993,Франклин Рузвелт,Franklin Ruzvelt,42.0035081,21.4152599,Рептил маркет,Reptil Market,http://www.reptilmarketi.mk/,Mo-Sa 07:00-21:00,7
3787515284,Борис Трајковски,Boris Trajkovski,41.9823773,21.4403011,Веро,Vero,https://vero.com.mk/,Mo-Sa 08:00-22:00,6
3932076509,Тале Христов,Tale Hristov,42.0248127,21.4416628,Кам маркет,Kam Market,http://www.kam.com.mk/,Mo-Sa 07:30-22:00,8
4151705280,Метрополит Теодосиј Гологанов,Metropolit Teodosij Gologanov,41.9948735,21.4207815,Веро,Vero,http://vero.com.mk/,Mo-Sa 07:30-22:00,1
4321893087,Булевар Партизански Одреди,Boulevard Partizanski Odredi,41.9983625,21.4233757,Kapael tobacco,Kapael Tobacco,http://www.facebook.com/tobaccokapael,Mo-Su 08:00-01:00,1
4355085491,1613,1613,41.980756,21.4718709,Зур маркет,Zur Market,http://zurmarket.mk/,Mo-Su 08:00-22:00,3
4355634895,Тодор Чангов,Todor Changov,41.9772578,21.4835479,Јовче,Jovce,/,Mo-Su 07:00-22:00,3
4455202893,Булевар Јане Сандански,Boulevard Jane Sandanski,41.9854287,21.4674517,Кам маркет,Kam Market,http://www.kam.com.mk,/,3
4484127494,Христо Татарчев,Hristo Tatarcev,41.9760296,21.444501,Гранап,Granap,http://granapdoma.mk/,Mo-Su 08:00-22:00,6
4616754990,Атинска,Atinska,41.9972875,21.4085105,Рептил,Reptil Market,/,/,7
4710537461,Св. Кирил и Методиj 5,St. Kiril i Metodij,41.9896032,21.4323528,Тинекс,Tinex,http://www.tinex.com.mk/,Mo-Sa 08:00-22:00,1
4732551922,Булевар Партизански Одреди,Boulevard Partizanski Odredi,42.0005257,21.4121462,Рептил,Reptil Market,http://reptilmarketi.mk/,Mo-Sa 07:00-21:00,7
4774073690,Васил Ѓоргов,Vasil Gjorgov,41.9929149,21.4199718,Тинекс,Tinex,http://www.tinex.com.mk/,Mo-Su 08:00-22:00,1
4889402965,Павел Шатев,Pavel Shatev,41.9867649,21.4306785,Маркет Поло,Market Polo,/,Mo-Sa 08:00-22:00,1
4900357523,Благој Давков,Blagoj Davkov,42.001234,21.4168689,Рамстор,Ramstore,http://ramstore.com.mk/,Mo-Sa 09:00-22:00,7
5017111222,Благој Давков,Blagoj Davkov,42.0007316,21.4175012,Кам маркет,Kam Market,/,/,7
5102511522,Даме Груев,Dame Gruev,41.9964763,21.4276669,Тинекс,Tinex,/,Mo-Sa 08:00-23:00; Su 08:00-20:00,1
5130533607,Васил Главинов,Vasil Glavinov,41.9934245,21.4286854,Деликатесен тинекс,Delicatessen Tinex,https://www.facebook.com/DelicatessenTinex/,Mo-Su 08:00-22:00,1
5155434323,Дижонска,Dizonska,42.0236333,21.4371996,Кипер маркет,Kipper Market,http://kipper.mk/,Mo-Sa 09:00-22:00,8
5155454122,Боро Менков,Boro Menkov,42.0239903,21.4371972,Стокомак,Stokomak,/,Mo-Sa 08:00-22:00,8
5286112857,Никола Тесла,Nikola Tesla,42.0056203,21.4111987,Гранап 5,Granap 5,https://www.facebook.com/GranapMarket/,Mo-Su 08:00-22:00,7
5292130937,23-ти Октомври,23 Oktomvri,41.9879358,21.4558769,Рамстор,Ramstore,http://ramstore.com.mk/,Mo-Sa 08:00-22:00,3
5323697760,Никола Парапунов,Nikola Parapunov,42.0079128,21.3842555,Гранап,Granap,https://granapdoma.mk/,Mo-Sa 08:00-22:00,7
5334911021,Волковска,Volkovska,42.0245187,21.350659,Кам маркет,Kam Market,http://kam.com.mk/,/,2
5344777681,Булевар Партизански Одреди,Boulevard Partizanski Odredi,42.0075655,21.3704929,Рептил,Reptil,http://www.reptilmarketi.mk/,Mo-Sa 07:00-21:00,2
5598215760,Манапо,Manapo,42.0065872,21.393054,Веро,Vero,http://www.vero.com.mk/,Mo-Sa 08:00-22:00,7
5829207731,Михаил Чаков,Mihail Chakov,41.9817349,21.4439477,Кам маркет,Kam Market,http://www.kam.com.mk/,Mo-Sa 07:30-21:30,6
5841674941,Булевар Партизански Одреди,Boulevard Partizanski Odredi,41.9990831,21.4220152,Тинекс,Tinex,http://tinex.com.mk/,Mo-Sa 08:00-22:00,1
6054048724,Булевар Партизански Одреди,Boulevard Partizanski Odredi,41.9994766,21.4177897,Маркет фратели,Market Fratelli,/,/,7
6058582666,Методија Андонов Ченто,Metodija Andonov Chento,42.011324,21.5104508,Кипер маркет,Kipper Market,http://kipper.mk/mk/,Mo-Sa 07:00-22:00,5
6145381754,Никола Парапунов,Nikola Parapunov,42.0067318,21.3818169,Тинекс,Tinex,http://www.tinex.com.mk/,Mo-Sa 08:00-22:00,7
6277485880,Бутелска,Butelska,42.03101,21.4445186,Рептил,Reptil,http://reptilmarketi.mk/,Mo-Sa 07:00-21:00,8
6281683651,Борис Сарафов,Boris Sarafov,42.0078991,21.3340183,Кипер маркет,Kipper Market,/,Mo-Sa 07:00-22:00,2
6405264386,Булевар Авној,Boulevard Avnoj,41.9898103,21.4691912,М маркет,M Market,/,Mo-Sa 07:00-21:30,3
6814246717,Булевар Крсте Петков Мисирков,Boulevard Krste Petkov Misirkov,42.0010275,21.4396745,Dm,DM,https://www.dm.mk/,/,1
6821158390,Св. Кирил и Методиј,St. Kiril i Metodij,41.992184,21.4277103,Здрава храна зегин,Healty Food Zegin,/,/,1
6827074190,Дебарца,Debarca,41.9994318,21.4213409,Стокомак,Stokomak,https://www.facebook.com/stokomak.diskont/,Mo-Sa 07:30-21:30,1
6827074191,Булевар Партизански Одреди,Boulevard Partizanski Odredi,41.9989821,21.4224806,Swisslion,Swisslion,http://swisslion.com.mk/,Mo-Sa 08:00-20:00,1
6830542485,11-ти Октомври,11 Oktomvri,41.9910788,21.4346069,Стокомак,Stokomak,/,Mo-Sa 08:00-22:00,1
6913220785,Валандовска,Valandovska,41.9954171,21.5098008,Стокомак,Stokomak,/,Mo-Sa 08:00-21:30,5
7827651855,Тодор Чангов,Todor Changov,41.976006,21.4815508,Бобико тп колонијал,Bobiko TP Kolonijal,/,Mo-Su 07:00-22:00,3
7846557942,Бутелска,Butelska,42.0364195,21.4464861,Стокомак,Stokomak,/,Mo-Sa 07:30-21:30,8
7846569770,Бутелска,Butelska,42.0372124,21.4458128,Жито маркет,Zito Market,http://zito.com.mk/,Mo-Sa 07:30-21:30,8
8124609017,Вапчор,Vapchor,42.0036961,21.4672422,Кит-го,Kit Go,https://www.kitgo.mk/,Mo-Sa 07:30-22:00,5
8492059617,Прашка,Prashka,41.9980345,21.3981423,Рамстор,Ramstore,http://www.ramstore.com.mk/,Mo-Sa 08:00-22:00,7
8646562196,Орце Николов,Orce Nikolov,42.0054049,21.4097719,La noi,La noi,/,Mo-Sa 07:30-21:30,7
8868776220,Вењамин Мачуковски,Venjamin Machukovski,41.9855334,21.4485408,Кам маркет,Kam Market,http://kam.com.mk/,Mo-Sa 07:30-22:00,3
9120586796,Методија Андонов Ченто,Metodija Andonov Chento,42.0069756,21.5031425,С маркет,S Market,http://www.smarket.com.mk/,Mo-Sa 07:00-23:00,5
9200216059,Ленинова,Leninova,41.9974123,21.4222398,Рептил,Reptil,/,/,1
9200216060,Васил Стефановски,Vasil Stefanovski,41.9959161,21.4180198,Степ,Step,/,Mo-Sa 07:00-22:00,1
9200216555,Христо Смирненски,Hristo Smirnenski,41.9983774,21.415282,Зур,Zur,http://www.zurmarket.com.mk/,Mo-Sa 07:30-22:00,1
9244180287,Васко Каранѓелески,Vasko Karangjeleski,41.9843604,21.4589135,Кам маркет,Kam Market,www.kam.com.mk,Mo-Su 08:00-22:00,3
9244195697,Вангел Тодоровски,Vangjel Todorovski,41.984756,21.4555933,Стокомак,Stokomak,https://www.facebook.com/stokomak.diskont/,Mo-Su 07:30-21:00,3
9244235991,Фрањо Клуз,Franjo Kluz,41.9847803,21.4510086,Рамстор,Ramstore,http://ramstore.com.mk/,Mo-Sa 08:00-22:00,3
9244250664,Коста Новаковиќ,Kosta Novakovikj,41.9828854,21.4556365,Зур,Zur Market,http://zurmarket.mk/,Mo-Sa 07:30-22:00,3
9244268507,Симеон Кавракиров,Simeon Kavrakirov,41.9888605,21.4483803,Стокомак,Stokomak,https://www.facebook.com/stokomak.diskont/,Mo-Sa 07:30-21:30,3
9244283951,Булевар Јане Сандански,Boulevard Jane Sandanski,41.9887772,21.461333,Тинекс,Tinex,http://www.tinex.com.mk/,Mo-Sa 08:00-21:30,3
